ONEWEB-0098             
1 45442U 20020U   24342.45493317 -.00000456  00000+0 -13214-2 0  9993
2 45442  87.8887 131.9939 0001221 100.1316 259.9950 13.11418034229671
ONEWEB-0055             
1 45443U 20020V   24342.44051649 -.00000242  00000+0 -71941-3 0  9996
2 45443  87.8886 131.9996 0001403  94.4388 265.6900 13.11413382229647
ONEWEB-0093             
1 45444U 20020W   24342.49225395  .00000649  00000+0  17939-2 0  9998
2 45444  87.8889 131.9720 0001382  85.9574 274.1711 13.11416091229717
ONEWEB-0029             
1 45445U 20020X   24342.43459123 -.00000058  00000+0 -19980-3 0  9996
2 45445  87.8890 131.9971 0001590  90.0175 270.1135 13.11417170229684
ONEWEB-0068             
1 45446U 20020Y   24342.48631500  .00000543  00000+0  14970-2 0  9993
2 45446  87.8891 131.9724 0001556  89.1117 271.0189 13.11416604229634
ONEWEB-0046             
1 45447U 20020Z   24342.48375772  .00000546  00000+0  15040-2 0  9992
2 45447  87.8889 131.9847 0001759  95.4952 264.6376 13.11420027229641
ONEWEB-0063             
1 45448U 20020AA  24342.51258488 -.00000119  00000+0 -37265-3 0  9993
2 45448  87.8888 131.9786 0001640 101.7459 258.3853 13.11416751229734
ONEWEB-0019             
1 45449U 20020AB  24342.48717023  .00000552  00000+0  15228-2 0  9998
2 45449  87.8893 131.9936 0001396 100.4962 259.6323 13.11418203229573
